KUIPER-00061            
1 64521U 25134X   25302.69546141  .00004178  00000+0  57774-3 0  9993
2 64521  51.9002  87.3359 0005663 197.8291 162.2473 14.79858766 20737
KUIPER-00062            
1 64522U 25134Y   25302.80192707  .00005032  00000+0  61511-3 0  9996
2 64522  51.8963  93.3785 0007073 219.7901 140.2545 14.84697256 20672
KUIPER-00063            
1 64523U 25134Z   25302.81349597  .00003852  00000+0  53470-3 0  9992
2 64523  51.9008  96.7445 0004035 150.5700 209.5490 14.79878790 20629
KUIPER-00064            
1 64524U 25134AA  25302.80407840  .00005178  00000+0  71601-3 0  9997
2 64524  51.8999  94.0755 0005382 279.4882  80.5471 14.79437477 20664
KUIPER-00065            
1 64525U 25134AB  25302.84158658  .00005004  00000+0  68488-3 0  9999
2 64525  51.9040  98.8145 0011134 209.1771 150.8570 14.79911737 20585
KUIPER-00066            
1 64526U 25134AC  25302.77834329  .00019041  00000+0  91712-3 0  9990
2 64526  51.8867  81.5484 0003783 233.6635 126.3995 15.18757729 20839
KUIPER-00069            
1 64816U 25151A   25303.00002315 -.00922749  00000+0 -66419-1 0  9994
2 64816  51.9059 140.4124 0006544 192.5112 112.3140 15.06671623  5837
KUIPER-00070            
1 64817U 25151B   25302.91566261  .00005112  00000+0  70029-3 0  9997
2 64817  51.8967 163.8486 0010141 173.1758 186.9344 14.79845981 17053
