<?xml version="1.0" encoding="UTF-8"?>
<ndm xmlns:xsi="http://www.w3.org/2001/XMLSchema-instance" xsi:noNamespaceSchemaLocation="https://sanaregistry.org/r/ndmxml_unqualified/ndmxml-2.0.0-master-2.0.xsd">
<omm id="CCSDS_OMM_VERS" version="2.0">
<header><CREATION_DATE/><ORIGINATOR/></header><body><segment><metadata><OBJECT_NAME>KUIPER-00061</OBJECT_NAME><OBJECT_ID>2025-134X</OBJECT_ID><CENTER_NAME>EARTH</CENTER_NAME><REF_FRAME>TEME</REF_FRAME><TIME_SYSTEM>UTC</TIME_SYSTEM><MEAN_ELEMENT_THEORY>SGP4</MEAN_ELEMENT_THEORY></metadata><data><meanElements><EPOCH>2025-10-29T16:41:27.865824</EPOCH><MEAN_MOTION>14.79858766</MEAN_MOTION><ECCENTRICITY>.00056636</ECCENTRICITY><INCLINATION>51.9002</INCLINATION><RA_OF_ASC_NODE>87.3359</RA_OF_ASC_NODE><ARG_OF_PERICENTER>197.8291</ARG_OF_PERICENTER><MEAN_ANOMALY>162.2473</MEAN_ANOMALY></meanElements><tleParameters><EPHEMERIS_TYPE>0</EPHEMERIS_TYPE><CLASSIFICATION_TYPE>U</CLASSIFICATION_TYPE><NORAD_CAT_ID>64521</NORAD_CAT_ID><ELEMENT_SET_NO>999</ELEMENT_SET_NO><REV_AT_EPOCH>2073</REV_AT_EPOCH><BSTAR>.57773959E-3</BSTAR><MEAN_MOTION_DOT>.4178E-4</MEAN_MOTION_DOT><MEAN_MOTION_DDOT>0</MEAN_MOTION_DDOT></tleParameters></data></segment></body></omm>
<omm id="CCSDS_OMM_VERS" version="2.0">
<header><CREATION_DATE/><ORIGINATOR/></header><body><segment><metadata><OBJECT_NAME>KUIPER-00062</OBJECT_NAME><OBJECT_ID>2025-134Y</OBJECT_ID><CENTER_NAME>EARTH</CENTER_NAME><REF_FRAME>TEME</REF_FRAME><TIME_SYSTEM>UTC</TIME_SYSTEM><MEAN_ELEMENT_THEORY>SGP4</MEAN_ELEMENT_THEORY></metadata><data><meanElements><EPOCH>2025-10-29T19:14:46.498848</EPOCH><MEAN_MOTION>14.84697256</MEAN_MOTION><ECCENTRICITY>.00070731</ECCENTRICITY><INCLINATION>51.8963</INCLINATION><RA_OF_ASC_NODE>93.3785</RA_OF_ASC_NODE><ARG_OF_PERICENTER>219.7901</ARG_OF_PERICENTER><MEAN_ANOMALY>140.2545</MEAN_ANOMALY></meanElements><tleParameters><EPHEMERIS_TYPE>0</EPHEMERIS_TYPE><CLASSIFICATION_TYPE>U</CLASSIFICATION_TYPE><NORAD_CAT_ID>64522</NORAD_CAT_ID><ELEMENT_SET_NO>999</ELEMENT_SET_NO><REV_AT_EPOCH>2067</REV_AT_EPOCH><BSTAR>.61511213E-3</BSTAR><MEAN_MOTION_DOT>.5032E-4</MEAN_MOTION_DOT><MEAN_MOTION_DDOT>0</MEAN_MOTION_DDOT></tleParameters></data></segment></body></omm>
<omm id="CCSDS_OMM_VERS" version="2.0">
<header><CREATION_DATE/><ORIGINATOR/></header><body><segment><metadata><OBJECT_NAME>KUIPER-00063</OBJECT_NAME><OBJECT_ID>2025-134Z</OBJECT_ID><CENTER_NAME>EARTH</CENTER_NAME><REF_FRAME>TEME</REF_FRAME><TIME_SYSTEM>UTC</TIME_SYSTEM><MEAN_ELEMENT_THEORY>SGP4</MEAN_ELEMENT_THEORY></metadata><data><meanElements><EPOCH>2025-10-29T19:31:26.051808</EPOCH><MEAN_MOTION>14.79878790</MEAN_MOTION><ECCENTRICITY>.00040356</ECCENTRICITY><INCLINATION>51.9008</INCLINATION><RA_OF_ASC_NODE>96.7445</RA_OF_ASC_NODE><ARG_OF_PERICENTER>150.5700</ARG_OF_PERICENTER><MEAN_ANOMALY>209.5490</MEAN_ANOMALY></meanElements><tleParameters><EPHEMERIS_TYPE>0</EPHEMERIS_TYPE><CLASSIFICATION_TYPE>U</CLASSIFICATION_TYPE><NORAD_CAT_ID>64523</NORAD_CAT_ID><ELEMENT_SET_NO>999</ELEMENT_SET_NO><REV_AT_EPOCH>2062</REV_AT_EPOCH><BSTAR>.53469872E-3</BSTAR><MEAN_MOTION_DOT>.3852E-4</MEAN_MOTION_DOT><MEAN_MOTION_DDOT>0</MEAN_MOTION_DDOT></tleParameters></data></segment></body></omm>
<omm id="CCSDS_OMM_VERS" version="2.0">
<header><CREATION_DATE/><ORIGINATOR/></header><body><segment><metadata><OBJECT_NAME>KUIPER-00064</OBJECT_NAME><OBJECT_ID>2025-134AA</OBJECT_ID><CENTER_NAME>EARTH</CENTER_NAME><REF_FRAME>TEME</REF_FRAME><TIME_SYSTEM>UTC</TIME_SYSTEM><MEAN_ELEMENT_THEORY>SGP4</MEAN_ELEMENT_THEORY></metadata><data><meanElements><EPOCH>2025-10-29T19:17:52.373760</EPOCH><MEAN_MOTION>14.79437477</MEAN_MOTION><ECCENTRICITY>.00053825</ECCENTRICITY><INCLINATION>51.8999</INCLINATION><RA_OF_ASC_NODE>94.0755</RA_OF_ASC_NODE><ARG_OF_PERICENTER>279.4882</ARG_OF_PERICENTER><MEAN_ANOMALY>80.5471</MEAN_ANOMALY></meanElements><tleParameters><EPHEMERIS_TYPE>0</EPHEMERIS_TYPE><CLASSIFICATION_TYPE>U</CLASSIFICATION_TYPE><NORAD_CAT_ID>64524</NORAD_CAT_ID><ELEMENT_SET_NO>999</ELEMENT_SET_NO><REV_AT_EPOCH>2066</REV_AT_EPOCH><BSTAR>.71600897E-3</BSTAR><MEAN_MOTION_DOT>.5178E-4</MEAN_MOTION_DOT><MEAN_MOTION_DDOT>0</MEAN_MOTION_DDOT></tleParameters></data></segment></body></omm>
<omm id="CCSDS_OMM_VERS" version="2.0">
<header><CREATION_DATE/><ORIGINATOR/></header><body><segment><metadata><OBJECT_NAME>KUIPER-00065</OBJECT_NAME><OBJECT_ID>2025-134AB</OBJECT_ID><CENTER_NAME>EARTH</CENTER_NAME><REF_FRAME>TEME</REF_FRAME><TIME_SYSTEM>UTC</TIME_SYSTEM><MEAN_ELEMENT_THEORY>SGP4</MEAN_ELEMENT_THEORY></metadata><data><meanElements><EPOCH>2025-10-29T20:11:53.080512</EPOCH><MEAN_MOTION>14.79911737</MEAN_MOTION><ECCENTRICITY>.00111345</ECCENTRICITY><INCLINATION>51.9040</INCLINATION><RA_OF_ASC_NODE>98.8145</RA_OF_ASC_NODE><ARG_OF_PERICENTER>209.1771</ARG_OF_PERICENTER><MEAN_ANOMALY>150.8570</MEAN_ANOMALY></meanElements><tleParameters><EPHEMERIS_TYPE>0</EPHEMERIS_TYPE><CLASSIFICATION_TYPE>U</CLASSIFICATION_TYPE><NORAD_CAT_ID>64525</NORAD_CAT_ID><ELEMENT_SET_NO>999</ELEMENT_SET_NO><REV_AT_EPOCH>2058</REV_AT_EPOCH><BSTAR>.68488236E-3</BSTAR><MEAN_MOTION_DOT>.5004E-4</MEAN_MOTION_DOT><MEAN_MOTION_DDOT>0</MEAN_MOTION_DDOT></tleParameters></data></segment></body></omm>
<omm id="CCSDS_OMM_VERS" version="2.0">
<header><CREATION_DATE/><ORIGINATOR/></header><body><segment><metadata><OBJECT_NAME>KUIPER-00066</OBJECT_NAME><OBJECT_ID>2025-134AC</OBJECT_ID><CENTER_NAME>EARTH</CENTER_NAME><REF_FRAME>TEME</REF_FRAME><TIME_SYSTEM>UTC</TIME_SYSTEM><MEAN_ELEMENT_THEORY>SGP4</MEAN_ELEMENT_THEORY></metadata><data><meanElements><EPOCH>2025-10-29T18:40:48.860256</EPOCH><MEAN_MOTION>15.18757729</MEAN_MOTION><ECCENTRICITY>.00037839</ECCENTRICITY><INCLINATION>51.8867</INCLINATION><RA_OF_ASC_NODE>81.5484</RA_OF_ASC_NODE><ARG_OF_PERICENTER>233.6635</ARG_OF_PERICENTER><MEAN_ANOMALY>126.3995</MEAN_ANOMALY></meanElements><tleParameters><EPHEMERIS_TYPE>0</EPHEMERIS_TYPE><CLASSIFICATION_TYPE>U</CLASSIFICATION_TYPE><NORAD_CAT_ID>64526</NORAD_CAT_ID><ELEMENT_SET_NO>999</ELEMENT_SET_NO><REV_AT_EPOCH>2083</REV_AT_EPOCH><BSTAR>.91712049E-3</BSTAR><MEAN_MOTION_DOT>.19041E-3</MEAN_MOTION_DOT><MEAN_MOTION_DDOT>0</MEAN_MOTION_DDOT></tleParameters></data></segment></body></omm>
<omm id="CCSDS_OMM_VERS" version="2.0">
<header><CREATION_DATE/><ORIGINATOR/></header><body><segment><metadata><OBJECT_NAME>KUIPER-00069</OBJECT_NAME><OBJECT_ID>2025-151A</OBJECT_ID><CENTER_NAME>EARTH</CENTER_NAME><REF_FRAME>TEME</REF_FRAME><TIME_SYSTEM>UTC</TIME_SYSTEM><MEAN_ELEMENT_THEORY>SGP4</MEAN_ELEMENT_THEORY></metadata><data><meanElements><EPOCH>2025-10-30T00:00:02.000160</EPOCH><MEAN_MOTION>15.06671623</MEAN_MOTION><ECCENTRICITY>.00065442</ECCENTRICITY><INCLINATION>51.9059</INCLINATION><RA_OF_ASC_NODE>140.4124</RA_OF_ASC_NODE><ARG_OF_PERICENTER>192.5112</ARG_OF_PERICENTER><MEAN_ANOMALY>112.3140</MEAN_ANOMALY></meanElements><tleParameters><EPHEMERIS_TYPE>0</EPHEMERIS_TYPE><CLASSIFICATION_TYPE>U</CLASSIFICATION_TYPE><NORAD_CAT_ID>64816</NORAD_CAT_ID><ELEMENT_SET_NO>999</ELEMENT_SET_NO><REV_AT_EPOCH>583</REV_AT_EPOCH><BSTAR>-.6641931E-1</BSTAR><MEAN_MOTION_DOT>-.922749E-2</MEAN_MOTION_DOT><MEAN_MOTION_DDOT>0</MEAN_MOTION_DDOT></tleParameters></data></segment></body></omm>
<omm id="CCSDS_OMM_VERS" version="2.0">
<header><CREATION_DATE/><ORIGINATOR/></header><body><segment><metadata><OBJECT_NAME>KUIPER-00070</OBJECT_NAME><OBJECT_ID>2025-151B</OBJECT_ID><CENTER_NAME>EARTH</CENTER_NAME><REF_FRAME>TEME</REF_FRAME><TIME_SYSTEM>UTC</TIME_SYSTEM><MEAN_ELEMENT_THEORY>SGP4</MEAN_ELEMENT_THEORY></metadata><data><meanElements><EPOCH>2025-10-29T21:58:33.249504</EPOCH><MEAN_MOTION>14.79845981</MEAN_MOTION><ECCENTRICITY>.00101412</ECCENTRICITY><INCLINATION>51.8967</INCLINATION><RA_OF_ASC_NODE>163.8486</RA_OF_ASC_NODE><ARG_OF_PERICENTER>173.1758</ARG_OF_PERICENTER><MEAN_ANOMALY>186.9344</MEAN_ANOMALY></meanElements><tleParameters><EPHEMERIS_TYPE>0</EPHEMERIS_TYPE><CLASSIFICATION_TYPE>U</CLASSIFICATION_TYPE><NORAD_CAT_ID>64817</NORAD_CAT_ID><ELEMENT_SET_NO>999</ELEMENT_SET_NO><REV_AT_EPOCH>1705</REV_AT_EPOCH><BSTAR>.70028588E-3</BSTAR><MEAN_MOTION_DOT>.5112E-4</MEAN_MOTION_DOT><MEAN_MOTION_DDOT>0</MEAN_MOTION_DDOT></tleParameters></data></segment></body></omm>

</ndm>
